NORAD_CAT_ID,OBJECT_NAME,OBJECT_TYPE,EPOCH,MEAN_MOTION,ECCENTRICITY,INCLINATION,RA_OF_ASC_NODE,ARG_OF_PERICENTER,MEAN_ANOMALY,BSTAR,MEAN_MOTION_DOT,MEAN_MOTION_DDOT,TLE_LINE0,TLE_LINE1,TLE_LINE2,SEMIMAJOR_AXIS,PERIOD,APOGEE,PERIGEE,DECAYED
49728.0,STARLINK-3240,PAYLOAD,2024-04-26 00:42:54,15.0884754,0.0001473,53.2202,343.6922,97.1196,262.9964,1.4322e-06,-2.65e-06,0.0,0 STARLINK-3240,1 49728U 21115E   24117.02979188 -.00000265  00000-0  14322-5 0  9990,2 49728  53.2202 343.6922 0001473  97.1196 262.9964 15.08847540132335,6917.857,95.437,540.741,538.703,0.0
49728.0,STARLINK-3240,PAYLOAD,2024-04-26 21:22:54,15.08854194,0.0001412,53.2194,339.8307,99.2291,260.8861,1.9727e-05,2.6e-07,0.0,0 STARLINK-3240,1 49728U 21115E   24117.89090582  .00000026  00000-0  19727-4 0  9994,2 49728  53.2194 339.8307 0001412  99.2291 260.8861 15.08854194133574,6917.837,95.437,540.679,538.725,0.0
49728.0,STARLINK-3240,PAYLOAD,2024-04-27 21:13:41,15.08845406,0.0001011,53.2184,335.3733,81.1388,278.9718,-6.7771e-06,-3.96e-06,0.0,0 STARLINK-3240,1 49728U 21115E   24118.88451283 -.00000396  00000-0 -67771-5 0  9998,2 49728  53.2184 335.3733 0001011  81.1388 278.9718 15.08845406133723,6917.864,95.437,540.428,539.029,0.0
49728.0,STARLINK-3240,PAYLOAD,2024-04-28 13:07:33,15.08832297,0.0001259,53.2183,332.4006,77.6398,282.4735,1.6553e-05,-2.4e-07,0.0,0 STARLINK-3240,1 49728U 21115E   24119.54692082 -.00000024  00000-0  16553-4 0  9994,2 49728  53.2183 332.4006 0001259  77.6398 282.4735 15.08832297133822,6917.904,95.438,540.64,538.898,0.0
49728.0,STARLINK-3240,PAYLOAD,2024-04-28 21:04:29,15.08846646,0.0001172,53.2173,330.9138,82.8339,277.2786,-7.4437e-05,-1.473e-05,0.0,0 STARLINK-3240,1 49728U 21115E   24119.87811435 -.00001473  00000-0 -74437-4 0  9990,2 49728  53.2173 330.9138 0001172  82.8339 277.2786 15.08846646133873,6917.86,95.437,540.536,538.914,0.0
49728.0,STARLINK-3240,PAYLOAD,2024-04-29 06:36:47,15.08846862,0.000123,53.2178,329.1296,85.1273,274.986,-6.3101e-05,-1.292e-05,0.0,0 STARLINK-3240,1 49728U 21115E   24120.27555248 -.00001292  00000-0 -63101-4 0  9998,2 49728  53.2178 329.1296 0001230  85.1273 274.9860 15.08846862132822,6917.859,95.437,540.575,538.874,0.0
49728.0,STARLINK-3240,PAYLOAD,2024-04-29 20:55:17,15.08833425,0.0001335,53.2183,326.4559,86.4679,273.6466,-1.8487e-05,-5.82e-06,0.0,0 STARLINK-3240,1 49728U 21115E   24120.87172465 -.00000582  00000-0 -18487-4 0  9998,2 49728  53.2183 326.4559 0001335  86.4679 273.6466 15.08833425134023,6917.9,95.438,540.689,538.842,0.0
49728.0,STARLINK-3240,PAYLOAD,2024-04-30 06:27:35,15.08840175,0.0001456,53.2193,324.6713,86.6751,273.4407,-1.0141e-05,-4.49e-06,0.0,0 STARLINK-3240,1 49728U 21115E   24121.26916100 -.00000449  00000-0 -10141-4 0  9995,2 49728  53.2193 324.6713 0001456  86.6751 273.4407 15.08840175134082,6917.88,95.438,540.752,538.738,0.0
49728.0,STARLINK-3240,PAYLOAD,2024-04-30 20:46:02,15.08844785,0.0001313,53.2182,321.9947,92.0357,268.0786,0.0002876,4.293e-05,0.0,0 STARLINK-3240,1 49728U 21115E   24121.86530923  .00004293  00000-0  28760-3 0  9990,2 49728  53.2182 321.9947 0001313  92.0357 268.0786 15.08844785134175,6917.866,95.437,540.639,538.822,0.0
49728.0,STARLINK-3240,PAYLOAD,2024-04-30 22:21:25,15.08857646,0.0001536,53.2185,321.6978,92.7938,267.323,0.00015271,2.144e-05,0.0,0 STARLINK-3240,1 49728U 21115E   24121.93154397  .00002144  00000-0  15271-3 0  9991,2 49728  53.2185 321.6978 0001536  92.7938 267.3230 15.08857646133072,6917.826,95.436,540.754,538.629,0.0
49728.0,STARLINK-3240,PAYLOAD,2024-05-01 12:39:55,15.08835606,0.0001572,53.2172,319.0199,83.1558,276.9612,9.1395e-05,1.167e-05,0.0,0 STARLINK-3240,1 49728U 21115E   24122.52772027  .00001167  00000-0  91395-4 0  9999,2 49728  53.2172 319.0199 0001572  83.1558 276.9612 15.08835606134271,6917.894,95.438,540.846,538.671,0.0
49728.0,STARLINK-3240,PAYLOAD,2024-05-02 12:30:42,15.088356,0.000173,53.2176,314.56,83.1935,276.9254,-9.5081e-05,-1.801e-05,0.0,0 STARLINK-3240,1 49728U 21115E   24123.52132906 -.00001801  00000-0 -95081-4 0  9999,2 49728  53.2176 314.5600 0001730  83.1935 276.9254 15.08835600134420,6917.894,95.438,540.956,538.562,0.0
49728.0,STARLINK-3240,PAYLOAD,2024-05-03 12:21:29,15.08836885,0.0001558,53.2159,310.0984,81.6498,278.4671,0.00013794,1.908e-05,0.0,0 STARLINK-3240,1 49728U 21115E   24124.51492256  .00001908  00000-0  13794-3 0  9992,2 49728  53.2159 310.0984 0001558  81.6498 278.4671 15.08836885134574,6917.89,95.438,540.833,538.677,0.0
49728.0,STARLINK-3240,PAYLOAD,2024-05-03 18:43:01,15.08844693,0.0001489,53.2149,308.909,81.6313,278.4848,0.00019931,2.886e-05,0.0,0 STARLINK-3240,1 49728U 21115E   24124.77987562  .00002886  00000-0  19931-3 0  9994,2 49728  53.2149 308.9090 0001489  81.6313 278.4848 15.08844693134613,6917.866,95.437,540.761,538.701,0.0
49728.0,STARLINK-3240,PAYLOAD,2024-05-04 18:33:49,15.08834214,0.0001317,53.2166,304.4473,95.3925,264.7217,0.00016984,2.416e-05,0.0,0 STARLINK-3240,1 49728U 21115E   24125.77348433  .00002416  00000-0  16984-3 0  9997,2 49728  53.2166 304.4473 0001317  95.3925 264.7217 15.08834214134761,6917.898,95.438,540.674,538.852,0.0
49728.0,STARLINK-3240,PAYLOAD,2024-05-05 12:03:03,15.08848946,0.0001383,53.2173,301.1763,95.8409,264.274,-2.1497e-05,-6.3e-06,0.0,0 STARLINK-3240,1 49728U 21115E   24126.50211957 -.00000630  00000-0 -21497-4 0  9993,2 49728  53.2173 301.1763 0001383  95.8409 264.2740 15.08848946134875,6917.853,95.437,540.675,538.761,0.0
49728.0,STARLINK-3240,PAYLOAD,2024-05-05 16:49:12,15.08849637,0.0001359,53.2179,300.2846,96.3524,263.7623,1.577e-05,-3.7e-07,0.0,0 STARLINK-3240,1 49728U 21115E   24126.70083702 -.00000037  00000-0  15770-4 0  9997,2 49728  53.2179 300.2846 0001359  96.3524 263.7623 15.08849637133792,6917.851,95.437,540.656,538.776,0.0
49728.0,STARLINK-3240,PAYLOAD,2024-05-06 11:53:50,15.08837546,0.0001224,53.2173,296.7165,94.1122,266.001,5.0614e-05,5.18e-06,0.0,0 STARLINK-3240,1 49728U 21115E   24127.49572121  .00000518  00000-0  50614-4 0  9991,2 49728  53.2173 296.7165 0001224  94.1122 266.0010 15.08837546135020,6917.888,95.438,540.6,538.906,0.0
49728.0,STARLINK-3240,PAYLOAD,2024-05-06 15:04:36,15.08840548,0.000124,53.2183,296.1231,90.9367,269.1767,8.7263e-05,1.101e-05,0.0,0 STARLINK-3240,1 49728U 21115E   24127.62819861  .00001101  00000-0  87263-4 0  9990,2 49728  53.2183 296.1231 0001240  90.9367 269.1767 15.08840548133939,6917.879,95.438,540.602,538.886,0.0
49728.0,STARLINK-3240,PAYLOAD,2024-05-06 18:15:22,15.08844987,0.0001214,53.2186,295.5285,94.2867,265.8264,0.00011595,1.558e-05,0.0,0 STARLINK-3240,1 49728U 21115E   24127.76067485  .00001558  00000-0  11595-3 0  9992,2 49728  53.2186 295.5285 0001214  94.2867 265.8264 15.08844987135069,6917.865,95.437,540.57,538.89,0.0
49728.0,STARLINK-3240,PAYLOAD,2024-05-07 14:55:24,15.08832989,0.0001602,53.2193,291.6664,111.7328,248.3835,-3.3805e-05,-8.26e-06,0.0,0 STARLINK-3240,1 49728U 21115E   24128.62180732 -.00000826  00000-0 -33805-4 0  9997,2 49728  53.2193 291.6664 0001602 111.7328 248.3835 15.08832989134083,6917.902,95.438,540.875,538.659,0.0
49728.0,STARLINK-3240,PAYLOAD,2024-05-07 18:06:10,15.08831686,0.000145,53.219,291.0707,108.4028,251.7122,-5.7858e-05,-1.208e-05,0.0,0 STARLINK-3240,1 49728U 21115E   24128.75428890 -.00001208  00000-0 -57858-4 0  9990,2 49728  53.2190 291.0707 0001450 108.4028 251.7122 15.08831686135219,6917.906,95.438,540.774,538.768,0.0
49728.0,STARLINK-3240,PAYLOAD,2024-05-07 21:16:56,15.08836609,0.0001153,53.2176,290.472,87.9797,272.1327,-3.7995e-05,-8.92e-06,0.0,0 STARLINK-3240,1 49728U 21115E   24128.88676440 -.00000892  00000-0 -37995-4 0  9998,2 49728  53.2176 290.4720 0001153  87.9797 272.1327 15.08836609134128,6917.891,95.438,540.553,538.958,0.0
49728.0,STARLINK-3240,PAYLOAD,2024-05-08 14:46:11,15.08832255,0.0001161,53.2167,287.2006,89.926,270.1865,2.2026e-05,6.3e-07,0.0,0 STARLINK-3240,1 49728U 21115E   24129.61541061  .00000063  00000-0  22026-4 0  9997,2 49728  53.2167 287.2006 0001161  89.9260 270.1865 15.08832255134235,6917.904,95.438,540.572,538.966,0.0
49728.0,STARLINK-3240,PAYLOAD,2024-05-08 16:21:34,15.08836753,0.0001058,53.2163,286.9031,88.9682,271.1432,-1.0364e-05,-4.53e-06,0.0,0 STARLINK-3240,1 49728U 21115E   24129.68164870 -.00000453  00000-0 -10364-4 0  9990,2 49728  53.2163 286.9031 0001058  88.9682 271.1432 15.08836753134246,6917.89,95.438,540.487,539.023,0.0
49728.0,STARLINK-3240,PAYLOAD,2024-05-09 05:04:39,15.08842178,0.0001234,53.2168,284.5245,88.7526,271.3608,7.6072e-05,9.23e-06,0.0,0 STARLINK-3240,1 49728U 21115E   24130.21156368  .00000923  00000-0  76072-4 0  9992,2 49728  53.2168 284.5245 0001234  88.7526 271.3608 15.08842178135430,6917.874,95.437,540.592,538.885,0.0
49728.0,STARLINK-3240,PAYLOAD,2024-05-09 14:36:57,15.08840788,0.0001224,53.2166,282.74,86.1081,274.0051,0.00020443,2.967e-05,0.0,0 STARLINK-3240,1 49728U 21115E   24130.60900265  .00002967  00000-0  20443-3 0  9998,2 49728  53.2166 282.7400 0001224  86.1081 274.0051 15.08840788134388,6917.878,95.438,540.59,538.896,0.0
49728.0,STARLINK-3240,PAYLOAD,2024-05-09 17:47:43,15.08853195,0.0001092,53.217,282.1452,81.0508,279.0608,0.00024539,3.621e-05,0.0,0 STARLINK-3240,1 49728U 21115E   24130.74147483  .00003621  00000-0  24539-3 0  9996,2 49728  53.2170 282.1452 0001092  81.0508 279.0608 15.08853195135510,6917.84,95.437,540.46,538.95,0.0
49728.0,STARLINK-3240,PAYLOAD,2024-05-10 03:20:02,15.08844268,0.0001114,53.2182,280.3597,65.5295,294.5813,0.00015341,2.155e-05,0.0,0 STARLINK-3240,1 49728U 21115E   24131.13892277  .00002155  00000-0  15341-3 0  9990,2 49728  53.2182 280.3597 0001114  65.5295 294.5813 15.08844268135575,6917.867,95.437,540.503,538.962,0.0
49728.0,STARLINK-3240,PAYLOAD,2024-05-10 16:03:08,15.08844282,0.000122,53.2155,277.9816,75.2934,284.8193,0.00015661,2.206e-05,0.0,0 STARLINK-3240,1 49728U 21115E   24131.66884412  .00002206  00000-0  15661-3 0  9992,2 49728  53.2155 277.9816 0001220  75.2934 284.8193 15.08844282134542,6917.867,95.437,540.576,538.888,0.0
